CCSDS_OMM_VERS = 2.0
CREATION_DATE  = 
ORIGINATOR     = 

OBJECT_NAME    = ATLAS CENTAUR 2
OBJECT_ID      = 1963-047A
CENTER_NAME    = EARTH
REF_FRAME      = TEME
TIME_SYSTEM    = UTC
MEAN_ELEMENT_THEORY = SGP/SGP4

EPOCH          = 2025-12-31T21:14:43.727712
MEAN_MOTION    = 14.11846978
ECCENTRICITY   = .05486464
INCLINATION    = 30.3538
RA_OF_ASC_NODE = 214.5075
ARG_OF_PERICENTER = 202.8477
MEAN_ANOMALY   = 154.6809

EPHEMERIS_TYPE = 0
CLASSIFICATION_TYPE = U
NORAD_CAT_ID   = 694
ELEMENT_SET_NO = 999
REV_AT_EPOCH   = 12203
BSTAR          = .36728239E-3
MEAN_MOTION_DOT = .3109E-4
MEAN_MOTION_DDOT = 0

CCSDS_OMM_VERS = 2.0
CREATION_DATE  = 
ORIGINATOR     = 

OBJECT_NAME    = THOR AGENA D R/B
OBJECT_ID      = 1964-002A
CENTER_NAME    = EARTH
REF_FRAME      = TEME
TIME_SYSTEM    = UTC
MEAN_ELEMENT_THEORY = SGP/SGP4

EPOCH          = 2025-12-31T21:51:35.662752
MEAN_MOTION    = 14.33972520
ECCENTRICITY   = .00338708
INCLINATION    = 99.1218
RA_OF_ASC_NODE = 10.5662
ARG_OF_PERICENTER = 95.6643
MEAN_ANOMALY   = 264.8404

EPHEMERIS_TYPE = 0
CLASSIFICATION_TYPE = U
NORAD_CAT_ID   = 733
ELEMENT_SET_NO = 999
REV_AT_EPOCH   = 22858
BSTAR          = .17100206E-3
MEAN_MOTION_DOT = .432E-5
MEAN_MOTION_DDOT = 0

CCSDS_OMM_VERS = 2.0
CREATION_DATE  = 
ORIGINATOR     = 

OBJECT_NAME    = SL-3 R/B
OBJECT_ID      = 1964-053B
CENTER_NAME    = EARTH
REF_FRAME      = TEME
TIME_SYSTEM    = UTC
MEAN_ELEMENT_THEORY = SGP/SGP4

EPOCH          = 2025-12-31T20:55:35.143392
MEAN_MOTION    = 14.61292426
ECCENTRICITY   = .00755369
INCLINATION    = 65.0760
RA_OF_ASC_NODE = 170.0508
ARG_OF_PERICENTER = 314.0089
MEAN_ANOMALY   = 45.4801

EPHEMERIS_TYPE = 0
CLASSIFICATION_TYPE = U
NORAD_CAT_ID   = 877
ELEMENT_SET_NO = 999
REV_AT_EPOCH   = 25688
BSTAR          = .12467296E-3
MEAN_MOTION_DOT = .517E-5
MEAN_MOTION_DDOT = 0

CCSDS_OMM_VERS = 2.0
CREATION_DATE  = 
ORIGINATOR     = 

OBJECT_NAME    = SL-8 R/B
OBJECT_ID      = 1967-045B
CENTER_NAME    = EARTH
REF_FRAME      = TEME
TIME_SYSTEM    = UTC
MEAN_ELEMENT_THEORY = SGP/SGP4

EPOCH          = 2025-12-31T16:27:56.956032
MEAN_MOTION    = 14.45559849
ECCENTRICITY   = .00633511
INCLINATION    = 74.0117
RA_OF_ASC_NODE = 115.0853
ARG_OF_PERICENTER = 139.6470
MEAN_ANOMALY   = 220.9414

EPHEMERIS_TYPE = 0
CLASSIFICATION_TYPE = U
NORAD_CAT_ID   = 2802
ELEMENT_SET_NO = 999
REV_AT_EPOCH   = 7919
BSTAR          = .23186918E-3
MEAN_MOTION_DOT = .811E-5
MEAN_MOTION_DDOT = 0

CCSDS_OMM_VERS = 2.0
CREATION_DATE  = 
ORIGINATOR     = 

OBJECT_NAME    = SL-8 R/B
OBJECT_ID      = 1968-040B
CENTER_NAME    = EARTH
REF_FRAME      = TEME
TIME_SYSTEM    = UTC
MEAN_ELEMENT_THEORY = SGP/SGP4

EPOCH          = 2025-12-31T17:58:15.783456
MEAN_MOTION    = 15.02684755
ECCENTRICITY   = .0026296
INCLINATION    = 74.0330
RA_OF_ASC_NODE = 92.4604
ARG_OF_PERICENTER = 291.1422
MEAN_ANOMALY   = 68.6956

EPHEMERIS_TYPE = 0
CLASSIFICATION_TYPE = U
NORAD_CAT_ID   = 3230
ELEMENT_SET_NO = 999
REV_AT_EPOCH   = 7980
BSTAR          = .45148944E-3
MEAN_MOTION_DOT = .6033E-4
MEAN_MOTION_DDOT = 0

CCSDS_OMM_VERS = 2.0
CREATION_DATE  = 
ORIGINATOR     = 

OBJECT_NAME    = OAO 2
OBJECT_ID      = 1968-110A
CENTER_NAME    = EARTH
REF_FRAME      = TEME
TIME_SYSTEM    = UTC
MEAN_ELEMENT_THEORY = SGP/SGP4

EPOCH          = 2025-12-31T21:33:24.760800
MEAN_MOTION    = 14.47257911
ECCENTRICITY   = .00053223
INCLINATION    = 34.9939
RA_OF_ASC_NODE = 283.7073
ARG_OF_PERICENTER = 6.9728
MEAN_ANOMALY   = 353.1036

EPHEMERIS_TYPE = 0
CLASSIFICATION_TYPE = U
NORAD_CAT_ID   = 3597
ELEMENT_SET_NO = 999
REV_AT_EPOCH   = 927
BSTAR          = .13558108E-3
MEAN_MOTION_DOT = .483E-5
MEAN_MOTION_DDOT = 0

CCSDS_OMM_VERS = 2.0
CREATION_DATE  = 
ORIGINATOR     = 

OBJECT_NAME    = ISIS 1
OBJECT_ID      = 1969-009A
CENTER_NAME    = EARTH
REF_FRAME      = TEME
TIME_SYSTEM    = UTC
MEAN_ELEMENT_THEORY = SGP/SGP4

EPOCH          = 2025-12-31T19:48:20.957184
MEAN_MOTION    = 11.30366649
ECCENTRICITY   = .17072984
INCLINATION    = 88.4502
RA_OF_ASC_NODE = 162.7091
ARG_OF_PERICENTER = 226.1309
MEAN_ANOMALY   = 118.5684

EPHEMERIS_TYPE = 0
CLASSIFICATION_TYPE = U
NORAD_CAT_ID   = 3669
ELEMENT_SET_NO = 999
REV_AT_EPOCH   = 34086
BSTAR          = .39875721E-3
MEAN_MOTION_DOT = .557E-5
MEAN_MOTION_DDOT = 0

CCSDS_OMM_VERS = 2.0
CREATION_DATE  = 
ORIGINATOR     = 

OBJECT_NAME    = SERT 2
OBJECT_ID      = 1970-009A
CENTER_NAME    = EARTH
REF_FRAME      = TEME
TIME_SYSTEM    = UTC
MEAN_ELEMENT_THEORY = SGP/SGP4

EPOCH          = 2025-12-31T21:07:39.896832
MEAN_MOTION    = 13.58720893
ECCENTRICITY   = .0004783
INCLINATION    = 99.2675
RA_OF_ASC_NODE = 307.7149
ARG_OF_PERICENTER = 348.3239
MEAN_ANOMALY   = 79.2685

EPHEMERIS_TYPE = 0
CLASSIFICATION_TYPE = U
NORAD_CAT_ID   = 4327
ELEMENT_SET_NO = 999
REV_AT_EPOCH   = 77068
BSTAR          = .133291E-3
MEAN_MOTION_DOT = .56E-6
MEAN_MOTION_DDOT = 0

CCSDS_OMM_VERS = 2.0
CREATION_DATE  = 
ORIGINATOR     = 

OBJECT_NAME    = SL-3 R/B
OBJECT_ID      = 1971-028B
CENTER_NAME    = EARTH
REF_FRAME      = TEME
TIME_SYSTEM    = UTC
MEAN_ELEMENT_THEORY = SGP/SGP4

EPOCH          = 2025-12-31T20:26:07.753632
MEAN_MOTION    = 15.55762446
ECCENTRICITY   = .00186772
INCLINATION    = 81.2376
RA_OF_ASC_NODE = 135.4686
ARG_OF_PERICENTER = 172.2227
MEAN_ANOMALY   = 187.9317

EPHEMERIS_TYPE = 0
CLASSIFICATION_TYPE = U
NORAD_CAT_ID   = 5118
ELEMENT_SET_NO = 999
REV_AT_EPOCH   = 97810
BSTAR          = .69233294E-3
MEAN_MOTION_DOT = .48331E-3
MEAN_MOTION_DDOT = 0

CCSDS_OMM_VERS = 2.0
CREATION_DATE  = 
ORIGINATOR     = 

OBJECT_NAME    = ASTEX 1
OBJECT_ID      = 1971-089A
CENTER_NAME    = EARTH
REF_FRAME      = TEME
TIME_SYSTEM    = UTC
MEAN_ELEMENT_THEORY = SGP/SGP4

EPOCH          = 2025-12-31T21:08:48.527808
MEAN_MOTION    = 14.50669747
ECCENTRICITY   = .00140582
INCLINATION    = 92.7153
RA_OF_ASC_NODE = 129.8137
ARG_OF_PERICENTER = 319.9638
MEAN_ANOMALY   = 40.0531

EPHEMERIS_TYPE = 0
CLASSIFICATION_TYPE = U
NORAD_CAT_ID   = 5560
ELEMENT_SET_NO = 999
REV_AT_EPOCH   = 85247
BSTAR          = .26354845E-3
MEAN_MOTION_DOT = .1034E-4
MEAN_MOTION_DDOT = 0

CCSDS_OMM_VERS = 2.0
CREATION_DATE  = 
ORIGINATOR     = 

OBJECT_NAME    = SL-8 R/B
OBJECT_ID      = 1971-119B
CENTER_NAME    = EARTH
REF_FRAME      = TEME
TIME_SYSTEM    = UTC
MEAN_ELEMENT_THEORY = SGP/SGP4

EPOCH          = 2025-12-31T21:57:05.106816
MEAN_MOTION    = 14.36223048
ECCENTRICITY   = .05577068
INCLINATION    = 73.8897
RA_OF_ASC_NODE = 302.2450
ARG_OF_PERICENTER = 282.6611
MEAN_ANOMALY   = 71.2763

EPHEMERIS_TYPE = 0
CLASSIFICATION_TYPE = U
NORAD_CAT_ID   = 5730
ELEMENT_SET_NO = 999
REV_AT_EPOCH   = 64575
BSTAR          = .73457888E-3
MEAN_MOTION_DOT = .1418E-3
MEAN_MOTION_DDOT = 0

CCSDS_OMM_VERS = 2.0
CREATION_DATE  = 
ORIGINATOR     = 

OBJECT_NAME    = OAO 3 (COPERNICUS)
OBJECT_ID      = 1972-065A
CENTER_NAME    = EARTH
REF_FRAME      = TEME
TIME_SYSTEM    = UTC
MEAN_ELEMENT_THEORY = SGP/SGP4

EPOCH          = 2025-12-31T21:19:19.501824
MEAN_MOTION    = 14.59927072
ECCENTRICITY   = .00069681
INCLINATION    = 35.0072
RA_OF_ASC_NODE = 323.5861
ARG_OF_PERICENTER = 321.1088
MEAN_ANOMALY   = 66.2705

EPHEMERIS_TYPE = 0
CLASSIFICATION_TYPE = U
NORAD_CAT_ID   = 6153
ELEMENT_SET_NO = 999
REV_AT_EPOCH   = 83628
BSTAR          = .16488355E-3
MEAN_MOTION_DOT = .781E-5
MEAN_MOTION_DDOT = 0

